{"type":"Topology","arcs":[[[1000000,363481],[-18822,-10139],[-18739,-9356],[-6440,-2002],[-153131,-36578],[-10134,-2855],[-141981,-39078],[-128720,-28616],[-3811,-1761],[-7768,-2353],[-6656,-1568],[-5545,0],[-8874,1],[-3459,408],[-3198,377],[-17753,784],[-21079,4111],[-15979,3961],[-22312,5078],[-66,15],[-11236,-4245],[-751,-283],[-11203,-3176],[-4779,-1354],[-5334,-1185],[-26855,-5963],[0,158],[-9386,-1409],[-2827,-1177],[-1987,-649],[-1925,-505],[-3682,-943],[-6008,-1838],[-7188,-1909],[-181,-48],[-6480,-1540],[-3162,-264],[-8250,-4514],[-7666,-3692],[-7797,-1878],[-8407,-2119],[-723,-192],[-5480,-1451],[-559,-147],[-4453,-1182],[-7002,-1133],[-6069,-934],[-7228,-150],[-8017,371],[-2161,223],[-4203,-1660],[-6760,-1791],[-316,-79],[-4406,-1100],[-8214,-1546],[-3098,-86],[-6045,-428],[-3010,27],[-4945,-183],[-6997,-259],[-7971,-375],[-8503,563],[-6910,375],[-8938,-1790],[-7002,-1402],[0,-263],[0,-23643],[618,-71203],[3,-305],[-219,195],[-22271,20536],[-55061,50777],[-4841,3811],[-108,86],[-19543,18407],[-6515,6024],[-33482,30594],[45,56],[132,172],[44,58],[1824,2368],[4795,6230],[448,984],[1210,2660],[1825,2547],[5474,7646],[816,1138],[674,941],[915,1999],[353,929],[254,-43],[134,-68],[194,-104],[151,-47],[150,-67],[97,-63],[2410,-800],[6560,-2684],[2187,-894],[1739,-771],[2957,-1310],[2261,-1002],[1740,-770],[608,-269],[1093,-327],[5210,-1554],[1735,-518],[526,-157],[1177,-351],[413,64],[545,86],[1431,223],[4294,672],[1430,226],[221,33],[660,104],[220,36],[1877,294],[1478,917],[1760,1091],[770,479],[2753,1711],[3779,3930],[1368,1422],[3382,1090],[402,130],[4054,2128],[314,164],[1211,636],[1523,799],[1853,973],[1075,888],[106,86],[105,88],[1200,989],[2220,1834],[2011,1657],[1409,1165],[210,173],[631,520],[210,174],[71,57],[211,175],[70,58],[116,94],[23,21],[-48,386],[-17,138],[-426,3472],[-15,118],[-150,441],[-326,964],[-538,1585],[-673,1982],[-31,92],[-143,425],[-3174,1598],[-2617,1319],[-885,1209],[-632,1738],[-57,219],[-393,1532],[-187,726],[-80,1247],[117,2902],[11,182],[2,39],[9,118],[1,40],[2,26],[3,50],[2,30],[2,27],[8,159],[4,39],[12,210],[11,180],[13,204],[13,199],[5,82],[14,249],[4,84],[10,146],[8,146],[39,645],[3,44],[118,138],[613,715],[77,45],[532,320],[982,585],[878,524],[779,473],[47,29],[571,344],[843,507],[492,297],[287,250],[52,43],[525,458],[88,167],[52,100],[135,255],[199,875],[19,85],[7,30],[3,232],[1,228],[4,439],[1,150],[-73,207],[-77,214],[-5,14],[-727,2002],[-114,317],[-49,135],[-28,76],[-113,204],[-93,171],[31,338],[22,248],[269,663],[369,647],[818,645],[132,106],[72,48],[244,238],[367,360],[160,252],[35,207],[-116,195],[-121,200],[-166,95],[-198,112],[-383,219],[-181,153],[-171,145],[-16,13],[-48,39],[-16,14],[-190,162],[-159,134],[-314,428],[-36,50],[-107,149],[-88,126],[-254,358],[-18,17],[-116,108],[-78,73],[-236,221],[-79,74],[-79,72],[-156,270],[-52,91],[-35,61],[-105,183],[-12,21],[-2,45],[-3,68],[-11,208],[-3,70],[-3,62],[-10,178],[4,11],[13,63],[15,64],[43,190],[13,65],[20,87],[19,87],[66,499],[280,976],[239,554],[19,16],[-4,20],[42,96],[13,29],[38,87],[12,30],[252,582],[91,378],[-11,126],[-67,710],[-580,740],[-666,603],[-802,634],[-275,217],[-790,408],[-44,23],[-132,68],[-44,23],[-396,205],[-426,104],[-805,197],[-1713,459],[-63,45],[-707,497],[-1068,1207],[-445,561],[-758,1014],[-440,414],[-28,22],[-51,55],[-11,15],[-100,87],[-303,285],[-52,25],[-376,184],[-581,800],[-14,18],[-2,424],[-56,423],[16,777],[293,669],[58,151],[985,1728],[100,463],[-184,809],[-197,1121],[-154,1335],[-57,406],[-212,211],[-16,28],[-558,431],[-159,165],[-579,343],[-557,355],[-249,764],[-160,179],[263,605],[179,316],[359,1051],[598,735],[115,276],[-167,682],[-2,12],[-7,38],[-4,13],[-94,650],[-38,252],[-24,165],[245,545],[485,483],[315,144],[170,80],[485,224],[210,96],[629,290],[132,61],[64,52],[844,696],[365,123],[171,59],[1671,101],[1230,-277],[608,7],[718,-2],[154,-71],[529,-239],[308,-157],[401,-221],[119,-4],[554,-13],[844,395],[1921,730],[526,188],[958,419],[1637,652],[1693,598],[835,171],[1332,79],[234,34],[674,99],[567,296],[424,297],[231,245],[98,403],[38,460],[155,549],[201,286],[132,147],[174,128],[382,204],[60,54],[735,368],[1224,421],[883,589],[83,60],[246,182],[82,61],[459,336],[750,159],[399,84],[1589,267],[1447,81],[602,-143],[355,-85],[983,-152],[52,-8],[60,-12],[331,-63],[78,-14],[32,-2],[1049,-67],[251,-4],[1097,-17],[916,-207],[851,-285],[875,-350],[290,-114],[866,-418],[707,-340],[153,-60],[624,-245],[640,-166],[364,-216],[631,-383],[339,-114],[181,-61],[765,121],[94,14],[261,42],[17,5],[86,33],[774,285],[1012,189],[811,129],[527,-131],[422,-391],[501,-523],[506,-390],[22,-163],[414,-319],[40,-14],[311,-109],[855,-13],[614,135],[469,104],[414,92],[299,144],[1072,516],[331,245],[458,58],[-3,116],[4,82],[2,37],[5,80],[19,345],[3,78],[5,99],[75,1356],[235,4368],[78,1457],[15,276],[7,140],[24,416],[1,26],[13,247],[15,277],[13,216],[37,646],[11,192],[0,25],[1,69],[41,820],[129,2665],[16,328],[27,561],[2,41],[42,896],[118,2534],[10,275],[28,937],[12,360],[35,1080],[9,361],[27,877],[10,318],[57,1211],[15,307],[43,923],[13,308],[3,45],[7,140],[1,48],[8,135],[18,405],[6,137],[1,11],[1,35],[0,12],[8,137],[19,408],[6,138],[2,26],[3,81],[0,27],[5,93],[14,279],[3,94],[4,63],[8,190],[2,42],[1,21],[6,128],[18,385],[5,129],[44,923],[130,2773],[42,924],[98,2064],[31,677],[82,1773],[557,6437],[235,2737],[58,856],[169,2571],[57,857],[95,1476],[286,4427],[95,1476],[76,1176],[226,3531],[74,1178],[47,731],[172,2691],[327,5104],[47,727],[103,1624],[117,1823],[41,742],[13,247],[54,996],[135,2427],[47,855],[48,861],[94,1705],[46,856],[39,700],[116,2100],[29,519],[9,182],[77,1421],[28,535],[71,1401],[113,2327],[51,1077],[2,50],[76,287],[12,47],[127,2185],[64,1098],[6,122],[272,5484],[6,137],[115,2097],[75,1351],[68,1259],[80,1462],[48,1333],[49,1353],[37,982],[2,97],[153,2849],[51,983],[187,3980],[143,3089],[346,6946],[85,1909],[175,3983],[6,130],[18,390],[5,131],[6,147],[11,215],[14,308],[1,17],[88,1994],[29,670],[22,511],[67,1533],[21,511],[6,132],[9,224],[7,175],[5,133],[11,259],[33,780],[10,260],[11,259],[13,341],[17,438],[10,260],[16,424],[46,1273],[15,425],[16,1142],[45,3429],[14,1143],[-8,108],[27,317],[25,170],[63,451],[87,1034],[18,302],[26,459],[-8,138],[29,401],[81,1209],[26,403],[-6,49],[-6,49],[-11,101],[-6,51],[49,775],[145,2326],[48,776],[3,55],[6,161],[22,654],[6,218],[9,214],[10,306],[12,334],[6,187],[1,28],[3,27],[2,83],[0,28],[1,18],[2,54],[0,18],[2,39],[39,819],[6,125],[33,693],[78,1621],[32,637],[48,984],[10,195],[9,196],[39,792],[81,1655],[95,1897],[53,1055],[6,129],[4,55],[7,170],[2,57],[11,190],[29,574],[9,191],[9,166],[22,439],[17,349],[32,641],[14,304],[27,520],[30,605],[40,806],[98,1960],[2,41],[22,420],[39,807],[26,516],[40,859],[33,691],[24,517],[24,480],[42,920],[26,521],[22,481],[46,546],[9,102],[154,1535],[54,546],[50,1446],[149,4339],[49,1446],[61,1421],[112,2691],[56,373],[4,57],[61,1138],[33,638],[18,339],[24,444],[23,429],[66,1245],[3,44],[24,430],[113,1940],[218,3722],[103,2103],[92,1898],[4,45],[22,687],[62,2061],[21,688],[23,727],[88,2858],[41,1324],[6,212],[5,156],[4,82],[2,84],[3,72],[2,74],[35,1105],[41,1353],[60,1965],[11,375],[22,731],[4,141],[11,259],[44,1095],[3,104],[15,401],[7,173],[21,521],[6,175],[9,183],[20,551],[7,185],[17,427],[50,1281],[16,428],[2,77],[6,231],[0,18],[3,60],[8,297],[5,175],[21,715],[8,297],[16,557],[49,1672],[15,558],[9,327],[65,2240],[221,7703],[74,2568],[9,50],[-59,1277],[-174,3641],[-17,345],[-66,1330],[-44,898],[-133,2698],[-45,899],[-2,17],[-1,21],[-36,714],[-120,2257],[-39,728],[-1,25],[-116,3066],[-351,9203],[-117,3067],[-19,487],[-12,307],[-43,1152],[-19,488],[-43,1149],[-132,3451],[-43,1100],[-2,51],[-2,71],[-24,623],[-79,2087],[-27,695],[-8,226],[-27,669],[-2,40],[-3,104],[-105,2863],[-102,2604],[-44,1132],[-133,3396],[-45,1133],[-59,1556],[48,87],[10,78],[8,74],[-79,107],[-10,272],[-33,857],[-99,2573],[-34,859],[-2,62],[-60,1566],[-187,4886],[-62,1630],[-9,239],[-28,719],[-7,180],[-3,60],[-33,869],[-101,2607],[-34,870],[-2,560],[0,128],[-6,1619],[-2,609],[-22,226],[-48,4435],[-113,3111],[-13,337],[-37,1057],[-140,3426],[-47,983],[-20,408],[-28,511],[5,327],[1,62],[-17,2106],[-112,1597],[-146,3406],[-11,260],[-5,98],[-277,2421],[-96,3481],[-17,581],[-512,17675],[0,24],[-230,4654],[-142,3032],[-2,35],[-128,2242],[-117,2044],[-426,8507],[-7,189],[-16,329],[5,167],[31,776],[-10,250],[-106,2735],[-64,1466],[-15,338],[-7,169],[-4,17],[-54,349],[-14,245],[-275,4728],[-5,71],[-279,4293],[-258,5626],[5,92],[-67,1470],[-15,360],[-33,1667],[-285,2256],[16,60],[21,77],[-5,165],[-51,1590],[-1,36],[-20,839],[-1,13],[-127,3761],[-23,668],[-15,135],[-7,201],[-16,221],[6,32],[-40,1237],[-119,2920],[-46,903],[-66,1209],[-102,1744],[-90,1614],[-123,2185],[-8,143],[-343,7060],[-49,590],[-21,122],[16,680],[8,358],[-8,149],[-63,339],[-5,162],[-3,80],[-61,1286],[-9,224],[-277,6337],[-9,223],[-4,77],[-4,78],[-3,73],[-54,1224],[-191,4313],[-276,4763],[-6,114],[-3,61],[-24,398],[-9,153],[-31,539],[-391,6220],[-1,38],[-2,25],[-33,595],[-9,157],[-37,659],[-3,57],[-59,1065],[-5,90],[-24,461],[-386,7020],[-146,2807],[-113,3179],[-287,5981],[-297,6044],[-105,3826],[-3,39],[-50,1819],[10,108],[-13,80],[-9,59],[-134,2365],[-15,482],[-3,107],[-16,536],[-55,1668],[-88,2699],[-88,2655],[-152,3500],[-99,2252],[0,27],[-8,203],[-182,4132],[-1,17],[-4,90],[-4,80],[-38,527],[-1,26],[-67,575],[-131,3572],[-104,2856],[-217,4373],[-1,34],[-7,159],[-52,1041],[-5,99],[-128,2564],[-4,379],[-6,652],[-1,196],[-1,78],[-1,161],[-4,274],[-16,559],[0,90],[0,974],[-15,1387],[-2,130],[-2,155],[-11,664],[0,31],[-2,39],[-84,5058],[-11,594],[0,81],[0,40],[-1,57],[-28,3629],[0,14],[-44,1548],[-1,44],[-18,550],[-45,1952],[87,48],[-4,2777],[-12,2454],[-38,91],[-84,54],[-24,12],[-15,1605],[-27,533],[-35,726],[-58,1194],[-1,1214],[-4,1953],[0,40],[-1,425],[-2,54],[-15,206],[5,28],[-18,437],[0,17],[-2,20],[-16,355],[-20,471],[-25,550],[-38,829],[-165,7102],[-3,140],[-1,35],[-37,1596],[-82,5381],[0,49],[0,62],[-56,3623],[-54,2899],[-33,2278],[0,33],[0,27],[-63,4280],[-221,7352],[-137,4566],[-103,4284],[-1,102],[-2,79],[8,4155],[10931,500],[2950,134],[651,31],[199,8],[4100,187],[748,34],[380,17],[3279,150],[2713,125],[7688,350],[270,11],[199,5],[2303,46],[160,3],[429,9],[465,10],[2075,42],[445,9],[132,3],[124,2],[199,1],[391,11],[58,0],[12052,246],[904,21],[3687,72],[201,5],[272,4],[1660,35],[77,2],[865,16],[2476,51],[7658,155],[410,6],[69,3],[2250,46],[4009,80],[2068,41],[7975,162],[3035,61],[142,3],[4915,98],[4405,89],[2051,40],[2346,36],[151,11],[27,1],[3061,64],[701,13],[439,10],[443,8],[588,12],[134,4],[3519,69],[846,17],[266,6],[41,0],[471,9],[45,3],[3102,60],[265,6],[1867,36],[910,19],[1428,28],[163,3],[16786,332],[2570,51],[375,7],[262,6],[1481,29],[163,3],[428,8],[2918,63],[138,3],[3200,67],[618,13],[149,0],[408,11],[4746,101],[678,14],[1262,26],[2263,48],[413,7],[504,12],[3216,68],[300,5],[2193,47],[105,2],[8815,186],[1857,39],[363,7],[3585,76],[141,3],[5113,107],[4517,96],[2138,44],[3920,83],[1121,24],[2006,42],[865,24],[8372,168],[501,9],[100,4],[99,0],[2941,62],[261,6],[941,19],[165,4],[5338,110],[488,11],[154,3],[3667,78],[7881,162],[305,6],[1367,28],[442,9],[159,4],[429,8],[3850,80],[6347,132],[408,9],[3307,68],[203,2],[264,8],[3331,69],[353,8],[393,7],[4305,88],[325,8],[155,2],[1838,38],[820,17],[94,2],[1941,41],[1821,36],[1103,23],[188,1],[2468,53],[1213,25],[691,14],[92,1],[241,6],[526,11],[368,18],[1375,27],[1664,32],[420,10],[817,3],[598,16],[673,14],[439,9],[812,16],[3351,68],[1096,23],[497,11],[964,18],[1937,40],[117,2],[59,1],[41,0],[69,1],[266,7],[406,6],[620,15],[3111,62],[92,3],[1511,29],[6266,127],[112,3],[105,2],[86,2],[139,2],[2112,44],[3160,64],[1508,30],[209,4],[2267,46],[589,12],[360,7],[507,10],[898,18],[114,3],[101,2],[227,4],[513,11],[231,4],[328,7],[2345,46],[2500,51],[816,17],[403,8],[49,1],[1380,27],[87,0],[1013,22],[263,5],[51,2],[942,19],[947,18],[1066,22],[124,2],[909,19],[2669,53],[787,17],[132,1],[107,2],[256,6],[67,1],[1177,25],[153,4],[184,12],[200,13],[100,7],[263,17],[527,35],[2311,151],[1693,112],[1883,123],[378,26],[767,50],[52,2],[394,29],[778,53],[716,44],[463,28],[1996,134],[116,7],[569,38],[287,18],[2370,156],[331,22],[2996,197],[100,6],[229,16],[1258,83],[3983,262],[362,23],[296,20],[230,15],[149,10],[353,24],[136,4],[145,5],[72,6],[568,39],[1038,70],[1570,108],[826,54],[486,31],[71,4],[1304,87],[1307,86],[112,7],[40,2],[598,39],[133,9],[86,7],[984,64],[116,2],[133,1],[462,6],[1821,23],[1087,14],[1061,14],[1048,13],[1098,14],[301,5],[783,9],[209,3],[173,2],[179,3],[2364,30],[3343,44],[1423,19],[145,0],[644,8],[1291,16],[1272,16],[578,9],[364,4],[52,10],[3298,35],[7457,78],[9353,94],[2456,26],[6537,71],[4970,55],[1466,16],[122,1],[3048,34],[289,3],[3453,1],[460,0],[6406,202],[54,7],[260,6],[2387,23],[100,1],[100,1],[33,0],[130,1],[129,2],[1470,18],[267,-2],[4896,48],[4358,41],[2833,27],[3648,34],[281,4],[388,3],[1362,12],[243,2],[360,2],[594,1],[1702,60],[908,33],[433,15],[332,7],[210,6],[898,22],[64,1],[1583,39],[1549,33],[102,0],[1599,0],[67,1],[2311,28],[2085,26],[9301,114],[26,0],[3799,48],[4076,54],[1782,18],[80,1],[2846,10],[1210,15],[1203,10],[1419,-2],[2660,-6],[132,8],[2562,0],[225,0],[269,-1],[826,2],[257,0],[240,0],[458,0],[2370,-1],[-125,-9272],[2,-3855],[3,-5340],[-1,-1131],[-7,-746],[22,-897],[10,-499],[96,-5022],[28,-2246],[24,-1973],[72,-5547],[-79,-693],[-2,-1805],[5,-114],[-9,-1885],[0,-761],[-4,-3194],[0,-94],[-1,-874],[0,-274],[-2,-431],[0,-73],[-3,-3233],[-1,-41],[-3,-49],[3,-422],[0,-884],[-6,-4791],[0,-244],[-2,-102],[0,-82],[-1,-1069],[0,-421],[0,-112],[3,-556],[-7,-1730],[0,-41],[-6,-4623],[0,-1376],[-1,-1073],[-1,-785],[-4,-890],[0,-1871],[0,-318],[-2,-1208],[1,-92],[-1,-485],[-1,-254],[-2,-1633],[-1,-592],[4,-1349],[-9,-3103],[-1,-1290],[-6,-4261],[0,-179],[-4,-543],[1,-1952],[-2,-159],[-10,-7857],[1,-962],[-1,-529],[-1,-888],[0,-243],[0,-204],[-1,-472],[0,-307],[-4,-3105],[10,-520],[-11,-158],[0,-187],[-3,-299],[0,-244],[2,-384],[0,-319],[-2,-232],[2,-115],[-2,-71],[0,-73],[0,-91],[-1,-590],[0,-418],[0,-56],[0,-169],[0,-67],[3,-100],[-3,-143],[1,-130],[-2,-779],[0,-201],[-4,-2173],[0,-429],[0,-47],[0,-148],[-1,-69],[0,-632],[0,-200],[-1,-313],[1,-198],[-1,-77],[-1,-643],[0,-207],[0,-723],[-2,-323],[3,-99],[-3,-484],[-1,-238],[-1,-27],[1,-608],[0,-210],[-2,-1040],[-1,-316],[-3,-2663],[3,-66],[-4,-965],[0,-782],[-1,-891],[0,-249],[-2,-192],[0,-177],[0,-214],[-1,-841],[0,-119],[-2,-1817],[-1,-1782],[-2,-312],[0,-240],[-1,-373],[1,-589],[-2,-352],[-1,-1295],[0,-653],[-2,-452],[0,-263],[-1,-264],[0,-197],[0,-667],[-1,-404],[0,-125],[0,-519],[-1,-185],[0,-202],[0,-200],[149,15],[83,9],[95,11],[86,6],[3276,351],[1031,103],[1021,107],[481,53],[340,34],[1410,148],[151,16],[883,93],[235,25],[50,5],[71,8],[37,3],[106,11],[3165,331],[5925,623],[154,17],[314,32],[146,15],[342,37],[508,53],[281,29],[293,31],[778,82],[1645,172],[125,13],[1001,105],[890,93],[1705,178],[601,63],[432,47],[1148,119],[1219,128],[843,89],[594,61],[639,68],[610,64],[446,46],[1056,112],[475,50],[470,48],[1490,157],[47,5],[1116,118],[1157,120],[435,46],[629,62],[74,11],[800,85],[293,30],[978,103],[378,39],[690,75],[2234,232],[295,31],[3112,326],[1032,106],[834,89],[120,14],[104,10],[693,73],[306,32],[-573,-4066],[-36,-250],[-8,-38],[-3,-39],[-6,-43],[-9,-65],[-21,-138],[-127,-906],[-94,-662],[-15,-102],[-6,-52],[-6,-40],[-8,-63],[-6,-51],[-225,-1582],[-54,-353],[-23,-189],[-16,-102],[-29,-221],[-33,-207],[-433,-3083],[-79,-564],[-97,-684],[-400,-2840],[-93,-658],[-120,-842],[-49,-350],[115,-286],[208,-518],[187,-393],[377,-1008],[135,-334],[114,-268],[159,-413],[111,-278],[491,-1217],[583,-1452],[479,-1190],[794,-1997],[453,-1104],[57,-144],[805,-2000],[799,-1986],[6,-13],[6,-15],[107,-264],[824,-2052],[820,-2031],[42,-114],[384,-952],[242,-561],[21,-91],[48,-122],[-15,-28],[-247,-462],[-58,-106],[-428,-801],[-407,-763],[-2146,-4015],[-638,-1191],[-124,-236],[-53,-98],[-100,-187],[-93,-175],[-173,-327],[-20,-42],[-69,-121],[-738,-1380],[-954,-1784],[-148,-276],[-1339,-2505],[-413,-773],[-805,-1506],[-381,-713],[-298,-558],[-327,-611],[-130,-243],[-290,-545],[396,-442],[360,-405],[294,-329],[435,-488],[390,-427],[16,-27],[72,-80],[171,-192],[212,-237],[164,-145],[210,-237],[88,-100],[344,-388],[47,-52],[46,-53],[2981,-3359],[188,-225],[326,-377],[201,-215],[524,-582],[1248,-1403],[-2028,-1465],[-298,-216],[-104,-74],[-322,-233],[-84,-59],[-142,-106],[-170,-121],[-521,-376],[-1854,-1340],[-256,-185],[-323,-235],[-444,-319],[-697,-504],[-894,-647],[-608,-438],[-161,-117],[-274,-197],[-19,-14],[-374,-273],[-1280,-923],[-584,-422],[-185,-130],[-326,-240],[-719,-1204],[-186,-312],[-52,-87],[-138,-230],[-269,-451],[-156,-262],[-938,-1571],[-84,-139],[-324,-544],[59,-95],[153,-245],[5230,-8311],[1828,-2906],[95,-145],[343,-553],[673,-1069],[59,-94],[281,-454],[138,-222],[153,-231],[608,-969],[155,-241],[60,-99],[67,-107],[24,-44],[105,-162],[9,-72],[12,-240],[-83,-140],[5,-35],[46,-37],[156,-28],[23,-30],[11,-50],[-70,-95],[22,-162],[6,-41],[-254,-369],[-29,-224],[115,-176],[-56,-182],[-5,-14],[-11,-36],[-4,-13],[-10,-15],[-46,-77],[-63,-102],[-19,-34],[-141,-140],[-33,-58],[43,-54],[159,-83],[67,-15],[53,-35],[33,-42],[13,-80],[92,-141],[166,-35],[74,-62],[17,-56],[-40,-150],[-133,-251],[15,-186],[-16,-88],[-50,-60],[-122,-93],[-146,-289],[-95,-134],[-231,-323],[-52,-128],[-9,-21],[-74,-180],[-47,-133],[-85,-23],[-98,5],[-64,-43],[-50,-23],[-42,-30],[-10,-53],[0,-79],[-279,-370],[-110,-119],[-28,-76],[0,-64],[103,-165],[-47,-106],[-34,-107],[-99,-153],[69,-76],[115,-30],[131,-135],[-11,-110],[-98,-103],[-140,-118],[-84,-72],[-133,-213],[-29,-153],[51,-172],[51,-164],[22,-115],[-45,-68],[-98,-38],[-63,-68],[5,-50],[184,-118],[75,-47],[-30,-151],[-76,-82],[-17,-44],[13,-53],[62,-74],[-133,-213],[-70,-332],[-127,-121],[-195,-50],[-138,-26],[-28,-73],[86,-198],[8,-49],[13,-84],[28,-188],[98,-183],[45,-195],[200,-221],[35,-148],[4,-221],[87,-97],[132,-22],[143,-20],[420,-27],[115,-35],[68,-79],[0,-92],[-1,-118],[127,-92],[52,-126],[-64,-130],[-195,-45],[-190,28],[-121,-9],[-63,-50],[-49,-73],[8,-230],[-53,-109],[-71,-112],[17,-44],[76,-16],[119,21],[125,82],[71,4],[71,-24],[13,-33],[-102,-161],[-54,-65],[13,-50],[-18,-70],[111,-65],[44,-57],[142,-36],[102,-88],[235,-121],[120,-20],[41,14],[56,20],[452,-88],[147,-145],[229,-189],[-12,-69],[26,-34],[40,-13],[81,-15],[290,-87],[107,-15],[94,3],[227,-37],[64,-34],[36,-15],[58,-3],[58,5],[75,-17],[53,-39],[-35,-87],[13,-39],[53,-3],[155,9],[209,-27],[253,-18],[142,-57],[106,15],[165,92],[116,106],[38,69],[77,22],[75,2],[107,-28],[80,19],[164,-29],[115,-74],[217,-171],[159,-27],[84,-15],[81,8],[55,37],[51,17],[31,5],[72,-5],[177,-71],[104,-58],[37,-34],[20,-38],[-11,-154],[224,-182],[290,-47],[312,-77],[202,-85],[241,-174],[60,-88],[-44,-127],[17,-29],[49,-26],[192,15],[104,-15],[33,-40],[-44,-62],[-31,-29],[-68,-65],[-11,-113],[37,-142],[65,-77],[66,-35],[53,0],[38,22],[41,0],[53,-17],[31,-39],[59,-33],[132,-28],[46,-5],[27,-4],[36,-29],[-11,-43],[-22,-17],[-33,-26],[-154,-58],[-66,-37],[-6,-51],[60,-44],[164,-102],[159,-40],[159,-7],[38,-26],[-12,-26],[-109,-43],[-60,-72],[22,-48],[76,-32],[94,0],[200,-37],[148,-47],[23,-18],[21,-26],[39,-116],[-37,-75],[-62,-39],[-17,-17],[-16,-37],[-4,-74],[44,-154],[103,-173],[136,-169],[35,-154],[114,-195],[264,-394],[190,-238],[150,-155],[60,-91],[29,-45],[18,-26],[62,-64],[11,-24],[-18,-22],[-306,-101],[-44,-21],[-12,-48],[42,-103],[-9,-54],[-44,-17],[-154,23],[-118,-22],[-88,-64],[-37,-72],[39,-140],[44,-119],[37,-125],[132,-135],[309,-120],[139,-34],[40,-19],[177,-84],[280,-79],[117,-32],[198,-78],[48,-34],[0,-42],[-95,-83],[24,-86],[107,-85],[85,-12],[88,17],[100,28],[62,62],[11,12],[55,107],[100,51],[109,1],[49,-73],[18,-82],[-6,-109],[-16,-29],[-74,-76],[-35,-24],[-20,-25],[11,-37],[44,-49],[121,-32],[147,0],[169,12],[122,37],[70,0],[36,0],[50,-49],[-6,-54],[-5,-27],[44,-28],[146,-47],[68,-17],[44,-30],[-11,-48],[-41,-50],[-127,-51],[-39,-40],[-2,-59],[56,-18],[138,-16],[152,-8],[225,-25],[135,-37],[191,-65],[111,-76],[61,-33],[56,-38],[45,-38],[14,-18],[17,-39],[4,-25],[-8,-45],[-16,-43],[-84,-139],[-99,-138],[-47,-98],[-19,-93],[1,-146],[55,-395],[-1,-146],[-24,-93],[-28,-45],[-192,-213],[-29,-45],[-20,-44],[-30,-147],[-20,-49],[-29,-45],[-105,-128],[-49,-89],[-10,-31],[-71,-210],[-100,-332],[-57,-143],[-36,-45],[-98,-80],[-40,-40],[-22,-43],[3,-45],[47,-92],[61,-96],[20,-48],[15,-98],[7,-249],[22,-92],[22,-43],[32,-44],[92,-77],[168,-108],[91,-77],[30,-39],[30,-92],[8,-97],[-33,-298],[-3,-63],[-17,-50],[-7,-49],[22,-43],[99,-125],[26,-122],[-76,-89],[0,-49],[23,-43],[174,-217],[24,-47],[12,-49],[1,-49],[-12,-49],[-27,-44],[-38,-46],[-131,-119],[-34,-44],[-22,-45],[-22,-93],[0,-150],[37,-244],[39,-145],[38,-98],[52,-87],[43,-43],[114,-66],[61,-23],[74,1],[72,15],[54,36],[34,45],[43,93],[32,93],[14,99],[-11,345],[14,93],[23,45],[106,133],[72,-18],[66,-23],[57,-87],[113,-232],[86,-242],[33,-147],[6,-140],[-9,-250],[17,-146],[75,-237],[143,-378],[38,-142],[102,-46],[59,-28],[43,-119],[830,-311],[268,-102],[424,-159],[3178,-1196],[1577,-593],[198,-75],[881,-333],[567,-212],[58,-21],[141,-53],[87,-34],[2134,-802],[1375,-518],[110,-41],[1118,-420],[170,-64],[1671,-630],[2074,-781],[3522,-1326],[1483,-557],[143,-54],[120,-45],[1285,-485],[48,-17],[274,-104],[320,-126],[217,-75],[123,-46],[289,-110],[770,-288],[1659,-632],[41,-23],[3113,-1167],[129,-49],[1638,-614],[3851,-1445],[1097,-411],[155,-59],[137,-51],[312,-116],[69,-26],[180,-67],[2912,-1096],[438,-165],[694,-261],[4712,-1768],[156,-59],[155,-57],[204,-77],[193,-73],[386,-144],[4032,-1517],[409,-153],[1247,-468],[326,-124],[127,-49],[424,-164],[649,-249],[128,-49],[261,-98],[521,-196],[889,-335],[43,-16],[35,-13],[294,-111],[1941,-731],[125,-47],[1638,-616],[1333,-502],[333,-126],[46,-17],[7914,-2980],[5739,-2165],[275,-104],[41,-15],[1476,-555],[333,-128],[643,-242],[141,-54],[284,-106],[378,-143],[201,-76],[1194,-452],[739,-277],[488,-184],[4276,-4320],[1422,-1428],[1610,-1627],[178,-179],[364,-367],[1538,-1553],[1637,-1647],[3294,-3330],[1690,-1704],[3433,-3466],[2306,-2319],[8892,-8987],[5999,-6056],[1958,-1977],[1801,-1821],[1000,-1008],[426,-432],[72,-72],[445,-449],[-6,100],[188,-186],[210,-226],[102,-111],[4308,-4944],[17223,-18507],[97,-103],[8709,-9311],[1996,-2137],[1552,-1658],[803,-857],[2361,-2518],[42,-48],[47,-50],[107,-63],[36,-29],[-3,-28],[1051,-170],[135,-23],[15,-2],[269,-44],[69,-10],[102,-17],[69,-12],[467,-74],[1130,-183],[168,-28],[1120,-182],[713,-114],[324,-38],[363,-36],[232,-33],[334,-59],[1357,-240],[228,-40],[28,-5],[32,-6],[152,-27],[74,-5],[57,-1],[173,-22],[161,-28],[536,-92],[23,-4],[35,-6],[24,-4],[33,-6],[23,-5],[97,-16],[17,-3],[76,-12],[47,-9],[39,-7],[764,-119],[733,-117],[37,-5],[60,-11],[16,-3],[84,-12],[18,-3],[108,-18],[75,-12],[23,-3],[652,-115],[368,-65],[910,-150],[250,-35],[576,-115],[464,-74],[107,-16],[423,-67],[72,-12],[408,-64],[287,-46],[431,-71],[58,-9],[178,-29],[484,-78],[1767,-287],[1029,-166],[533,-86],[517,-85],[118,-19],[130,-21],[156,-26],[72,-11],[107,-17],[108,-17],[120,-20],[1620,-262],[217,-36],[83,-13],[121,-19],[-21,-223],[-8,-35],[-1,-18],[-13,-96],[-12,-106],[-8,-71],[-113,-961],[-44,-381],[-30,-259],[-115,-984],[-9,-75],[-36,-307],[107,-17],[2706,-395],[3397,-549],[380,-62],[1510,-244],[5263,-851],[3459,-561],[278,-44],[358,-59],[69,-10],[76,-13],[2930,-474],[243,-39],[4752,-770],[1940,-346],[29,-5],[247,-37],[1797,-265],[1082,-180],[64,-12],[543,-99],[279,-44],[533,-95],[655,-108],[674,-102],[897,-153],[1158,-187],[204,-31],[1320,-202],[892,-141],[351,-59],[156,-26],[109,-18],[515,-80],[1224,-202],[192,-32],[955,-142],[478,-79],[986,-162],[135,-22],[584,-92],[119,-20],[93,-16],[442,-80],[1075,-162],[201,-34],[443,-74],[208,-32],[349,-57],[236,-37],[146,-22],[418,-65],[22,-4],[1443,-235],[619,-84],[830,-131],[1606,-247],[545,-85],[278,-48],[611,-101],[-9,-52],[-40,-317],[-11,-103],[-22,-155],[-28,-249],[-9,-68],[-4,-23],[-2,-24],[-4,-26],[-7,-57],[-26,-216],[-35,-271],[-20,-165],[-145,-1178],[-26,-200],[-31,-256],[-27,-217],[-20,-156],[-19,-157],[-36,-293],[-228,-1873],[-107,-860],[-113,-871],[-505,-4073],[-62,-508],[-463,-3733],[-187,-1501],[-9,-76],[-55,-806],[-59,-855],[-3,-34],[-2,-33],[-6,-87],[-67,-961],[-5,-170],[-18,-156],[-30,-449],[-25,-362],[-16,-205],[-3,-69],[-13,-182],[-78,-1133],[-9,-88],[-193,-2820],[-209,-3032],[-190,-2774],[-177,-2558],[-7,-84],[-252,-210],[-3623,-3037],[-287,-242],[-224,-186],[-1216,-1029],[-356,-300],[-22,-126],[-388,-2219],[-121,-669],[-514,-2919],[-306,-1730],[-152,-867],[-193,-1094],[-99,-561],[-110,-619],[-221,-1256],[-25,-141],[-15,-81],[356,-1467],[35,-145],[77,-321],[164,-675],[351,-1450],[431,-1790],[238,-975],[228,-946],[136,-556],[664,-353],[113,-57],[850,-453],[674,-358],[95,-51],[201,-264],[700,-913],[858,-1133],[174,-227],[647,-851],[573,-752],[4822,-6334],[241,-317],[76,-592],[2099,-14971],[876,-6268],[102,-729],[7,-124],[1087,-7715],[11,-73],[42,-294],[321,-2294],[16,-120],[12,-94],[24,-171],[353,-2527],[26,-186],[5,-34],[61,-434],[189,-1362],[31,-196],[76,-562],[79,-570],[15,-106],[6,-37],[12,-96],[205,-1466],[6,-48],[8,-46],[46,-334],[11,-83],[37,-261],[13,-95],[12,-86],[13,-80],[197,-1123],[400,-2268],[47,-284],[16,-97],[48,-328],[23,-159],[29,-192],[146,-1001],[299,-2031],[700,-4754],[826,-5607],[416,-2820],[671,-4561],[1446,-9822],[76,-519],[232,-2688],[23,-223],[56,-681],[496,-5688],[95,-1048],[14,-148],[32,-1127],[0,-13],[229,-2629],[12,-135],[-7,-22],[21,-147],[2,-16],[107,-582],[20,-222],[13,-123],[2,-59],[1,-17],[-47,-98],[102,-568],[-18,-401],[61,-457],[77,-567],[-16,-357],[0,-13],[550,-6311],[166,-1852],[34,-178],[18,-93],[26,-130],[7,-41],[-28,-49],[14,-29],[8,-22],[16,-36],[17,-41],[8,-31],[18,-74],[24,-105],[13,-54],[2,-10],[148,-563],[104,-310],[46,-139],[57,-331],[149,-383],[151,-439],[75,-514],[-1449,-1882],[-68,-87],[3681,-5699],[784,-1144],[1291,-2062],[1188,-2017],[32809,-55681]],[[279046,68343],[3106,10782],[3000,10820],[1214,6284],[2837,10675],[3216,6634],[4996,6478],[11246,9600],[1653,2535],[4678,6697],[7774,7949],[312,7163],[919,7995],[1419,5188],[7178,14714],[12781,11319],[18624,8527],[21578,7929],[25573,5093],[15984,0],[26371,-8492],[23977,-15852],[19978,-23236],[4152,-4637],[5373,-5360],[3510,-6181],[3451,-8933],[2338,-10228],[-723,-8688],[-866,-5136],[-4837,-10866],[6050,-6452],[2656,-2698],[2762,-5380],[2262,-5954],[2050,-8273],[59,-7569],[-180,-5974],[-3100,-8236],[-5458,-9560],[-5182,-9416],[-3859,-5891],[-3966,-3155],[-5884,-5092],[-2920,-2114],[-7581,-4254],[-11536,-4917],[-12985,-4293],[-9372,-1571],[-9686,-918],[-11469,-800],[-14842,-2480],[-4872,-658],[-18061,-911],[-11515,-550],[-10200,851],[-11981,860],[-8780,1818],[-6889,2045],[-7085,2683],[-12267,5394],[-11610,6186],[-9508,6211],[-9552,6442],[-3532,2632],[-5251,6546],[-4212,7812],[-2700,8019],[-616,10844]]],"transform":{"scale":[8.18686999999997e-7,9.229659229659207e-7],"translate":[-71.907258,41.095834]},"objects":{"ri-outline-2025":{"type":"GeometryCollection","geometries":[{"arcs":[[[0]],[[1]]],"type":"MultiPolygon","properties":{"STATEFP":"44"}}]}}}